{
  "links" : {
    "next" : "https://api.nasa.gov/neo/rest/v1/feed?start_date=2009-09-09&end_date=2009-09-09&detailed=true&api_key=t0TVs3DtDT2H8Oy2Zy8m2eVrNsAVKAexjcZXUckd",
    "prev" : "https://api.nasa.gov/neo/rest/v1/feed?start_date=2009-09-07&end_date=2009-09-07&detailed=true&api_key=t0TVs3DtDT2H8Oy2Zy8m2eVrNsAVKAexjcZXUckd",
    "self" : "https://api.nasa.gov/neo/rest/v1/feed?start_date=2009-09-08&end_date=2009-09-08&detailed=true&api_key=t0TVs3DtDT2H8Oy2Zy8m2eVrNsAVKAexjcZXUckd"
  },
  "element_count" : 5,
  "near_earth_objects" : {
    "2009-09-08" : [ {
      "links" : {
        "self" : "https://api.nasa.gov/neo/rest/v1/neo/2311555?api_key=t0TVs3DtDT2H8Oy2Zy8m2eVrNsAVKAexjcZXUckd"
      },
      "neo_reference_id" : "2311555",
      "name" : "311555 (2006 BA148)",
      "nasa_jpl_url" : "http://ssd.jpl.nasa.gov/sbdb.cgi?sstr=2311555",
      "absolute_magnitude_h" : 18.4,
      "estimated_diameter" : {
        "kilometers" : {
          "estimated_diameter_min" : 0.5553349116,
          "estimated_diameter_max" : 1.2417666126
        },
        "meters" : {
          "estimated_diameter_min" : 555.334911581,
          "estimated_diameter_max" : 1241.766612574
        },
        "miles" : {
          "estimated_diameter_min" : 0.3450690093,
          "estimated_diameter_max" : 0.7715977618
        },
        "feet" : {
          "estimated_diameter_min" : 1821.9649913114,
          "estimated_diameter_max" : 4074.0375731972
        }
      },
      "is_potentially_hazardous_asteroid" : false,
      "close_approach_data" : [ {
        "close_approach_date" : "2009-09-08",
        "epoch_date_close_approach" : 1252393200000,
        "relative_velocity" : {
          "kilometers_per_second" : "20.4027929196",
          "kilometers_per_hour" : "73450.0545104606",
          "miles_per_hour" : "45639.0074817915"
        },
        "miss_distance" : {
          "astronomical" : "0.3820764912",
          "lunar" : "148.6277618408",
          "kilometers" : "57157832",
          "miles" : "35516228"
        },
        "orbiting_body" : "Earth"
      } ],
      "orbital_data" : {
        "orbit_id" : "35",
        "orbit_determination_date" : "2017-04-06 09:23:52",
        "orbit_uncertainty" : "1",
        "minimum_orbit_intersection" : ".234728",
        "jupiter_tisserand_invariant" : "4.041",
        "epoch_osculation" : "2458000.5",
        "eccentricity" : ".6140792696036494",
        "semi_major_axis" : "1.630870634590392",
        "inclination" : "15.76173374176233",
        "ascending_node_longitude" : "327.6065704727773",
        "orbital_period" : "760.7250128699328",
        "perihelion_distance" : ".629386786483084",
        "perihelion_argument" : "26.08019800730389",
        "aphelion_distance" : "2.632354482697701",
        "perihelion_time" : "2458130.355092283645",
        "mean_anomaly" : "298.5483158418177",
        "mean_motion" : ".4732327633632734",
        "equinox" : "J2000"
      }
    }, {
      "links" : {
        "self" : "https://api.nasa.gov/neo/rest/v1/neo/3255174?api_key=t0TVs3DtDT2H8Oy2Zy8m2eVrNsAVKAexjcZXUckd"
      },
      "neo_reference_id" : "3255174",
      "name" : "(2004 SW26)",
      "nasa_jpl_url" : "http://ssd.jpl.nasa.gov/sbdb.cgi?sstr=3255174",
      "absolute_magnitude_h" : 25.7,
      "estimated_diameter" : {
        "kilometers" : {
          "estimated_diameter_min" : 0.0192555078,
          "estimated_diameter_max" : 0.0430566244
        },
        "meters" : {
          "estimated_diameter_min" : 19.2555078188,
          "estimated_diameter_max" : 43.0566244241
        },
        "miles" : {
          "estimated_diameter_min" : 0.0119648141,
          "estimated_diameter_max" : 0.0267541378
        },
        "feet" : {
          "estimated_diameter_min" : 63.1742402722,
          "estimated_diameter_max" : 141.2618956756
        }
      },
      "is_potentially_hazardous_asteroid" : false,
      "close_approach_data" : [ {
        "close_approach_date" : "2009-09-08",
        "epoch_date_close_approach" : 1252393200000,
        "relative_velocity" : {
          "kilometers_per_second" : "17.6562389802",
          "kilometers_per_hour" : "63562.4603287351",
          "miles_per_hour" : "39495.2409748188"
        },
        "miss_distance" : {
          "astronomical" : "0.2798674266",
          "lunar" : "108.8684310913",
          "kilometers" : "41867572",
          "miles" : "26015304"
        },
        "orbiting_body" : "Earth"
      } ],
      "orbital_data" : {
        "orbit_id" : "6",
        "orbit_determination_date" : "2017-04-06 09:12:11",
        "orbit_uncertainty" : "8",
        "minimum_orbit_intersection" : ".0414616",
        "jupiter_tisserand_invariant" : "7.703",
        "epoch_osculation" : "2453272.5",
        "eccentricity" : ".416297628917652",
        "semi_major_axis" : ".7377373153024646",
        "inclination" : "18.42301551600615",
        "ascending_node_longitude" : "180.363823706028",
        "orbital_period" : "231.4467321714387",
        "perihelion_distance" : ".4306190201779744",
        "perihelion_argument" : "359.4830104619864",
        "aphelion_distance" : "1.044855610426955",
        "perihelion_time" : "2453385.661549533117",
        "mean_anomaly" : "183.9847352791903",
        "mean_motion" : "1.555433497040427",
        "equinox" : "J2000"
      }
    }, {
      "links" : {
        "self" : "https://api.nasa.gov/neo/rest/v1/neo/3479138?api_key=t0TVs3DtDT2H8Oy2Zy8m2eVrNsAVKAexjcZXUckd"
      },
      "neo_reference_id" : "3479138",
      "name" : "(2009 WM139)",
      "nasa_jpl_url" : "http://ssd.jpl.nasa.gov/sbdb.cgi?sstr=3479138",
      "absolute_magnitude_h" : 18.6,
      "estimated_diameter" : {
        "kilometers" : {
          "estimated_diameter_min" : 0.5064714588,
          "estimated_diameter_max" : 1.1325046106
        },
        "meters" : {
          "estimated_diameter_min" : 506.4714588346,
          "estimated_diameter_max" : 1132.5046106177
        },
        "miles" : {
          "estimated_diameter_min" : 0.3147066768,
          "estimated_diameter_max" : 0.7037055224
        },
        "feet" : {
          "estimated_diameter_min" : 1661.651821003,
          "estimated_diameter_max" : 3715.566426699
        }
      },
      "is_potentially_hazardous_asteroid" : false,
      "close_approach_data" : [ {
        "close_approach_date" : "2009-09-08",
        "epoch_date_close_approach" : 1252393200000,
        "relative_velocity" : {
          "kilometers_per_second" : "9.2638047699",
          "kilometers_per_hour" : "33349.697171581",
          "miles_per_hour" : "20722.2048897526"
        },
        "miss_distance" : {
          "astronomical" : "0.4613879929",
          "lunar" : "179.4799346924",
          "kilometers" : "69022664",
          "miles" : "42888692"
        },
        "orbiting_body" : "Earth"
      } ],
      "orbital_data" : {
        "orbit_id" : "15",
        "orbit_determination_date" : "2017-04-06 08:58:50",
        "orbit_uncertainty" : "2",
        "minimum_orbit_intersection" : ".40352",
        "jupiter_tisserand_invariant" : "3.272",
        "epoch_osculation" : "2458000.5",
        "eccentricity" : ".5035993445035585",
        "semi_major_axis" : "2.389469551749803",
        "inclination" : "20.7834796079621",
        "ascending_node_longitude" : "127.4042382030533",
        "orbital_period" : "1349.120303094642",
        "perihelion_distance" : "1.186134251777391",
        "perihelion_argument" : "265.4183219115553",
        "aphelion_distance" : "3.592804851722215",
        "perihelion_time" : "2457845.690114990420",
        "mean_anomaly" : "41.30955443751782",
        "mean_motion" : ".2668405472619632",
        "equinox" : "J2000"
      }
    } ]
  }
}